NORAD_CAT_ID,OBJECT_NAME,OBJECT_TYPE,EPOCH,MEAN_MOTION,ECCENTRICITY,INCLINATION,RA_OF_ASC_NODE,ARG_OF_PERICENTER,MEAN_ANOMALY,BSTAR,MEAN_MOTION_DOT,MEAN_MOTION_DDOT,TLE_LINE0,TLE_LINE1,TLE_LINE2,SEMIMAJOR_AXIS,PERIOD,APOGEE,PERIGEE,DECAYED
53869.0,STARLINK-4810,PAYLOAD,2024-01-03 01:35:02,15.08830016,0.000154,53.2149,249.9747,93.2682,266.8487,-0.00018852,-3.286e-05,0.0,0 STARLINK-4810,1 53869U 22114BD  24003.06600402 -.00003286  00000-0 -18852-3 0  9996,2 53869  53.2149 249.9747 0001540  93.2682 266.8487 15.08830016 72450,6917.911,95.438,540.841,538.711,0.0
53869.0,STARLINK-4810,PAYLOAD,2024-01-03 19:04:17,15.0883403,0.0001627,53.215,246.7027,93.8858,266.232,-4.2589e-05,-9.66e-06,0.0,0 STARLINK-4810,1 53869U 22114BD  24003.79464377 -.00000966  00000-0 -42589-4 0  9992,2 53869  53.2150 246.7027 0001627  93.8858 266.2320 15.08834030 72567,6917.899,95.438,540.889,538.638,0.0
53869.0,STARLINK-4810,PAYLOAD,2024-01-03 22:15:03,15.08837307,0.0001665,53.2147,246.1082,87.6321,272.4862,6.4331e-05,7.36e-06,0.0,0 STARLINK-4810,1 53869U 22114BD  24003.92712420  .00000736  00000-0  64331-4 0  9994,2 53869  53.2147 246.1082 0001665  87.6321 272.4862 15.08837307 73129,6917.889,95.438,540.905,538.602,0.0
53869.0,STARLINK-4810,PAYLOAD,2024-01-03 23:50:26,15.08839653,0.0001675,53.2148,245.8108,87.9302,272.1882,0.00014622,2.04e-05,0.0,0 STARLINK-4810,1 53869U 22114BD  24003.99336405  .00002040  00000-0  14622-3 0  9993,2 53869  53.2148 245.8108 0001675  87.9302 272.1882 15.08839653 73134,6917.881,95.438,540.905,538.588,0.0
53869.0,STARLINK-4810,PAYLOAD,2024-01-04 20:30:28,15.08839435,0.000175,53.2145,241.9447,93.1019,267.0173,0.00038104,5.781e-05,0.0,0 STARLINK-4810,1 53869U 22114BD  24004.85449091  .00005781  00000-0  38104-3 0  9991,2 53869  53.2145 241.9447 0001750  93.1019 267.0173 15.08839435 72720,6917.882,95.438,540.958,538.536,0.0
53869.0,STARLINK-4810,PAYLOAD,2024-01-04 22:05:51,15.08842096,0.0001771,53.2145,241.6474,91.9566,268.1629,0.00042158,6.428e-05,0.0,0 STARLINK-4810,1 53869U 22114BD  24004.92073041  .00006428  00000-0  42158-3 0  9990,2 53869  53.2145 241.6474 0001771  91.9566 268.1629 15.08842096 73279,6917.874,95.437,540.964,538.514,0.0
53869.0,STARLINK-4810,PAYLOAD,2024-01-05 01:16:37,15.08845713,0.0001766,53.2145,241.0524,92.7602,267.3592,0.00045753,7.002e-05,0.0,0 STARLINK-4810,1 53869U 22114BD  24005.05320937  .00007002  00000-0  45753-3 0  9997,2 53869  53.2145 241.0524 0001766  92.7602 267.3592 15.08845713 73294,6917.863,95.437,540.95,538.506,0.0
53869.0,STARLINK-4810,PAYLOAD,2024-01-05 20:21:15,15.08841003,0.000182,53.2152,237.4818,93.3038,266.8162,0.00013407,1.846e-05,0.0,0 STARLINK-4810,1 53869U 22114BD  24005.84809064  .00001846  00000-0  13407-3 0  9998,2 53869  53.2152 237.4818 0001820  93.3038 266.8162 15.08841003 72876,6917.877,95.437,541.001,538.483,0.0
53869.0,STARLINK-4810,PAYLOAD,2024-01-05 21:56:38,15.08841444,0.000182,53.2153,237.1844,92.7715,267.3485,0.00013383,1.843e-05,0.0,0 STARLINK-4810,1 53869U 22114BD  24005.91433037  .00001843  00000-0  13383-3 0  9999,2 53869  53.2153 237.1844 0001820  92.7715 267.3485 15.08841444 73423,6917.876,95.437,541.0,538.482,0.0
53869.0,STARLINK-4810,PAYLOAD,2024-01-06 20:12:02,15.08839492,0.000193,53.2156,233.0211,106.1315,253.989,6.1065e-05,6.84e-06,0.0,0 STARLINK-4810,1 53869U 22114BD  24006.84169067  .00000684  00000-0  61065-4 0  9994,2 53869  53.2156 233.0211 0001930 106.1315 253.9890 15.08839492 73563,6917.882,95.438,541.082,538.412,0.0
53869.0,STARLINK-4810,PAYLOAD,2024-01-07 00:58:11,15.08837762,0.0001925,53.2155,232.1296,105.6636,254.4569,2.5345e-05,1.15e-06,0.0,0 STARLINK-4810,1 53869U 22114BD  24007.04041171  .00000115  00000-0  25345-4 0  9992,2 53869  53.2155 232.1296 0001925 105.6636 254.4569 15.08837762 73050,6917.887,95.438,541.084,538.421,0.0
53869.0,STARLINK-4810,PAYLOAD,2024-01-07 20:02:49,15.08840419,0.0001806,53.216,228.5616,103.5627,256.5567,9.4862e-05,1.222e-05,0.0,0 STARLINK-4810,1 53869U 22114BD  24007.83529192  .00001222  00000-0  94862-4 0  9993,2 53869  53.2160 228.5616 0001806 103.5627 256.5567 15.08840419 73713,6917.879,95.438,540.993,538.495,0.0
53869.0,STARLINK-4810,PAYLOAD,2024-01-08 00:48:58,15.08840106,0.0001803,53.2159,227.6696,103.3322,256.7871,8.3881e-05,1.047e-05,0.0,0 STARLINK-4810,1 53869U 22114BD  24008.03401207  .00001047  00000-0  83881-4 0  9996,2 53869  53.2159 227.6696 0001803 103.3322 256.7871 15.08840106 73742,6917.88,95.438,540.992,538.498,0.0
53869.0,STARLINK-4810,PAYLOAD,2024-01-08 19:53:36,15.08835828,0.0001884,53.216,224.101,112.6974,247.4218,7.1098e-05,8.43e-06,0.0,0 STARLINK-4810,1 53869U 22114BD  24008.82889631  .00000843  00000-0  71098-4 0  9994,2 53869  53.2160 224.1010 0001884 112.6974 247.4218 15.08835828 73322,6917.893,95.438,541.061,538.455,0.0
53869.0,STARLINK-4810,PAYLOAD,2024-01-09 21:19:46,15.08842665,0.0001558,53.2157,219.3423,92.5814,267.5357,9.8206e-05,1.275e-05,0.0,0 STARLINK-4810,1 53869U 22114BD  24009.88873400  .00001275  00000-0  98206-4 0  9998,2 53869  53.2157 219.3423 0001558  92.5814 267.5357 15.08842665 74021,6917.872,95.437,540.815,538.659,0.0
53869.0,STARLINK-4810,PAYLOAD,2024-01-09 22:55:09,15.0884296,0.000156,53.2157,219.0449,92.9742,267.1428,9.9225e-05,1.292e-05,0.0,0 STARLINK-4810,1 53869U 22114BD  24009.95497374  .00001292  00000-0  99225-4 0  9999,2 53869  53.2157 219.0449 0001560  92.9742 267.1428 15.08842960 73496,6917.871,95.437,540.816,538.657,0.0
53869.0,STARLINK-4810,PAYLOAD,2024-01-10 19:35:10,15.08840162,0.0001464,53.215,215.1811,96.822,263.2939,9.5972e-05,1.24e-05,0.0,0 STARLINK-4810,1 53869U 22114BD  24010.81609631  .00001240  00000-0  95972-4 0  9995,2 53869  53.2150 215.1811 0001464  96.8220 263.2939 15.08840162 73627,6917.88,95.438,540.758,538.732,0.0
53869.0,STARLINK-4810,PAYLOAD,2024-01-11 13:04:24,15.08846596,0.0001465,53.2151,211.9099,93.7126,266.4034,9.7752e-05,1.268e-05,0.0,0 STARLINK-4810,1 53869U 22114BD  24011.54473227  .00001268  00000-0  97752-4 0  9994,2 53869  53.2151 211.9099 0001465  93.7126 266.4034 15.08846596 74272,6917.86,95.437,540.739,538.712,0.0
53869.0,STARLINK-4810,PAYLOAD,2024-01-11 19:25:57,15.08848804,0.000146,53.215,210.7205,93.8775,266.2384,0.00011065,1.474e-05,0.0,0 STARLINK-4810,1 53869U 22114BD  24011.80968951  .00001474  00000-0  11065-3 0  9997,2 53869  53.2150 210.7205 0001460  93.8775 266.2384 15.08848804 74318,6917.853,95.437,540.728,538.708,0.0
53869.0,STARLINK-4810,PAYLOAD,2024-01-12 19:16:45,15.0882969,0.0001582,53.2145,206.2604,133.7338,226.3786,-0.00010857,-2.015e-05,0.0,0 STARLINK-4810,1 53869U 22114BD  24012.80330284 -.00002015  00000-0 -10857-3 0  9992,2 53869  53.2145 206.2604 0001582 133.7338 226.3786 15.08829690 73920,6917.912,95.438,540.871,538.682,0.0
53869.0,STARLINK-4810,PAYLOAD,2024-01-13 12:46:01,15.08827103,0.0001372,53.2145,202.9841,122.6792,237.4332,-0.00011333,-2.09e-05,0.0,0 STARLINK-4810,1 53869U 22114BD  24013.53195758 -.00002090  00000-0 -11333-3 0  9991,2 53869  53.2145 202.9841 0001372 122.6792 237.4332 15.08827103 74573,6917.92,95.438,540.734,538.836,0.0
53869.0,STARLINK-4810,PAYLOAD,2024-01-14 12:36:48,15.0883097,0.0001498,53.215,198.5288,106.3723,253.7434,0.00040293,6.129e-05,0.0,0 STARLINK-4810,1 53869U 22114BD  24014.52556148  .00006129  00000-0  40293-3 0  9997,2 53869  53.2150 198.5288 0001498 106.3723 253.7434 15.08830970 74183,6917.908,95.438,540.809,538.737,0.0
53869.0,STARLINK-4810,PAYLOAD,2024-01-14 18:58:20,15.08846548,0.0001546,53.2154,197.3396,104.7375,255.3789,0.00063123,9.774e-05,0.0,0 STARLINK-4810,1 53869U 22114BD  24014.79052033  .00009774  00000-0  63123-3 0  9996,2 53869  53.2154 197.3396 0001546 104.7375 255.3789 15.08846548 74766,6917.86,95.437,540.795,538.656,0.0
53869.0,STARLINK-4810,PAYLOAD,2024-01-15 12:27:34,15.08865273,0.0001536,53.2158,194.0675,102.6381,257.4783,0.00063554,9.848e-05,0.0,0 STARLINK-4810,1 53869U 22114BD  24015.51915026  .00009848  00000-0  63554-3 0  9997,2 53869  53.2158 194.0675 0001536 102.6381 257.4783 15.08865273 74872,6917.803,95.436,540.731,538.606,0.0
53869.0,STARLINK-4810,PAYLOAD,2024-01-15 17:13:43,15.0887024,0.0001539,53.2158,193.1756,103.1124,257.004,0.00065089,0.00010095,0.0,0 STARLINK-4810,1 53869U 22114BD  24015.71786595  .00010095  00000-0  65089-3 0  9997,2 53869  53.2158 193.1756 0001539 103.1124 257.0040 15.08870240 74902,6917.788,95.436,540.718,538.588,0.0
53869.0,STARLINK-4810,PAYLOAD,2024-01-16 12:18:20,15.08861508,0.0001729,53.2154,189.6067,103.8334,256.285,0.0002668,3.963e-05,0.0,0 STARLINK-4810,1 53869U 22114BD  24016.51273869  .00003963  00000-0  26680-3 0  9991,2 53869  53.2154 189.6067 0001729 103.8334 256.2850 15.08861508 74484,6917.815,95.436,540.876,538.484,0.0
53869.0,STARLINK-4810,PAYLOAD,2024-01-16 18:39:53,15.08850179,0.0001435,53.2152,188.4193,96.8413,263.2743,-3.9212e-05,-9.12e-06,0.0,0 STARLINK-4810,1 53869U 22114BD  24016.77770029 -.00000912  00000-0 -39212-4 0  9998,2 53869  53.2152 188.4193 0001435  96.8413 263.2743 15.08850179 74528,6917.849,95.437,540.707,538.722,0.0
53869.0,STARLINK-4810,PAYLOAD,2024-01-16 20:15:16,15.08850197,0.0001411,53.2147,188.1202,95.4301,264.6852,9.2494e-06,-1.41e-06,0.0,0 STARLINK-4810,1 53869U 22114BD  24016.84394030 -.00000141  00000-0  92494-5 0  9995,2 53869  53.2147 188.1202 0001411  95.4301 264.6852 15.08850197 75072,6917.849,95.437,540.69,538.738,0.0
53869.0,STARLINK-4810,PAYLOAD,2024-01-17 18:30:40,15.08849172,0.0001543,53.2168,183.956,95.5936,264.5232,-5.5363e-05,-1.169e-05,0.0,0 STARLINK-4810,1 53869U 22114BD  24017.77130319 -.00001169  00000-0 -55363-4 0  9991,2 53869  53.2168 183.9560 0001543  95.5936 264.5232 15.08849172 74673,6917.852,95.437,540.785,538.65,0.0
53869.0,STARLINK-4810,PAYLOAD,2024-01-18 10:24:32,15.08839271,0.0001494,53.2171,180.9821,87.409,272.7073,4.2151e-05,3.83e-06,0.0,0 STARLINK-4810,1 53869U 22114BD  24018.43370546  .00000383  00000-0  42151-4 0  9999,2 53869  53.2171 180.9821 0001494  87.4090 272.7073 15.08839271 74774,6917.883,95.438,540.781,538.714,0.0
